[
    {
        "Altitude(m)": 604221.1927550622,
        "Argument of Periapsis(deg)": 0.0,
        "Eccentricity": 0.0,
        "Inclination(deg)": 60.0,
        "Latitude(deg)": 14.11717986192719,
        "Longitude(deg)": -101.66584289762157,
        "Mean Anomaly(deg)": -343.63640000000004,
        "RAAN(deg)": 350.0,
        "Satellite Name": "Test1 1541",
        "Satellite Number": 1541,
        "Semi-Major Axis(m)": 6980739.136638005,
        "Time(s)": 0
    },
    {
        "Altitude(m)": 604235.3332557579,
        "Argument of Periapsis(deg)": 0.00010418945913296404,
        "Eccentricity": 0.0,
        "Inclination(deg)": 60.0,
        "Latitude(deg)": 14.651576563355286,
        "Longitude(deg)": -101.37739590880197,
        "Mean Anomaly(deg)": -343.01629385453816,
        "RAAN(deg)": 349.99957995086027,
        "Satellite Name": "Test1 1541",
        "Satellite Number": 1541,
        "Semi-Major Axis(m)": 6980739.136638005,
        "Time(s)": 10
    },
    {
        "Altitude(m)": 604252.3708592888,
        "Argument of Periapsis(deg)": 0.0002083789182659281,
        "Eccentricity": 0.0,
        "Inclination(deg)": 60.0,
        "Latitude(deg)": 15.1854834540207,
        "Longitude(deg)": -101.08734592703048,
        "Mean Anomaly(deg)": -342.39618770907634,
        "RAAN(deg)": 349.9991599017205,
        "Satellite Name": "Test1 1541",
        "Satellite Number": 1541,
        "Semi-Major Axis(m)": 6980739.136638005,
        "Time(s)": 20
    },
    {
        "Altitude(m)": 604272.2737370488,
        "Argument of Periapsis(deg)": 0.00031256837739889213,
        "Eccentricity": 0.0,
        "Inclination(deg)": 60.0,
        "Latitude(deg)": 15.718879229350064,
        "Longitude(deg)": -100.79562544029528,
        "Mean Anomaly(deg)": -341.7760815636145,
        "RAAN(deg)": 349.9987398525808,
        "Satellite Name": "Test1 1541",
        "Satellite Number": 1541,
        "Semi-Major Axis(m)": 6980739.136638005,
        "Time(s)": 30
    },
    {
        "Altitude(m)": 604295.0087857082,
        "Argument of Periapsis(deg)": 0.0004167578365318562,
        "Eccentricity": 0.0,
        "Inclination(deg)": 60.0,
        "Latitude(deg)": 16.25174224905467,
        "Longitude(deg)": -100.5021654139779,
        "Mean Anomaly(deg)": -341.15597541815265,
        "RAAN(deg)": 349.998319803441,
        "Satellite Name": "Test1 1541",
        "Satellite Number": 1541,
        "Semi-Major Axis(m)": 6980739.136638005,
        "Time(s)": 40
    },
    {
        "Altitude(m)": 604320.541646132,
        "Argument of Periapsis(deg)": 0.0005209472956648203,
        "Eccentricity": 0.0,
        "Inclination(deg)": 60.0,
        "Latitude(deg)": 16.784050521095157,
        "Longitude(deg)": -100.20689625527089,
        "Mean Anomaly(deg)": -340.53586927269083,
        "RAAN(deg)": 349.9978997543013,
        "Satellite Name": "Test1 1541",
        "Satellite Number": 1541,
        "Semi-Major Axis(m)": 6980739.136638005,
        "Time(s)": 50
    },
    {
        "Altitude(m)": 604348.8367229126,
        "Argument of Periapsis(deg)": 0.0006251367547977843,
        "Eccentricity": 0.0,
        "Inclination(deg)": 60.0,
        "Latitude(deg)": 17.3157816851616,
        "Longitude(deg)": -99.90974726387087,
        "Mean Anomaly(deg)": -339.915763127229,
        "RAAN(deg)": 349.99747970516154,
        "Satellite Name": "Test1 1541",
        "Satellite Number": 1541,
        "Semi-Major Axis(m)": 6980739.136638005,
        "Time(s)": 60
    },
    {
        "Altitude(m)": 604379.8572044689,
        "Argument of Periapsis(deg)": 0.0007293262139307483,
        "Eccentricity": 0.0,
        "Inclination(deg)": 60.0,
        "Latitude(deg)": 17.84691299564741,
        "Longitude(deg)": -99.6106460817911,
        "Mean Anomaly(deg)": -339.2956569817672,
        "RAAN(deg)": 349.9970596560218,
        "Satellite Name": "Test1 1541",
        "Satellite Number": 1541,
        "Semi-Major Axis(m)": 6980739.136638005,
        "Time(s)": 70
    },
    {
        "Altitude(m)": 604413.5650837291,
        "Argument of Periapsis(deg)": 0.0008335156730637124,
        "Eccentricity": 0.0,
        "Inclination(deg)": 60.0,
        "Latitude(deg)": 18.377421304093875,
        "Longitude(deg)": -99.30951965514365,
        "Mean Anomaly(deg)": -338.6755508363054,
        "RAAN(deg)": 349.99663960688207,
        "Satellite Name": "Test1 1541",
        "Satellite Number": 1541,
        "Semi-Major Axis(m)": 6980739.136638005,
        "Time(s)": 80
    },
    {
        "Altitude(m)": 604449.9211793777,
        "Argument of Periapsis(deg)": 0.0009377051321966765,
        "Eccentricity": 0.0,
        "Inclination(deg)": 60.0,
        "Latitude(deg)": 18.90728304107878,
        "Longitude(deg)": -99.0062936821221,
        "Mean Anomaly(deg)": -338.05544469084356,
        "RAAN(deg)": 349.99621955774234,
        "Satellite Name": "Test1 1541",
        "Satellite Number": 1541,
        "Semi-Major Axis(m)": 6980739.136638005,
        "Time(s)": 90
    },
    {
        "Altitude(m)": 604488.8851576545,
        "Argument of Periapsis(deg)": 0.0010418945913296407,
        "Eccentricity": 0.0,
        "Inclination(deg)": 60.0,
        "Latitude(deg)": 19.436474197524486,
        "Longitude(deg)": -98.70089206003657,
        "Mean Anomaly(deg)": -337.4353385453817,
        "RAAN(deg)": 349.99579950860254,
        "Satellite Name": "Test1 1541",
        "Satellite Number": 1541,
        "Semi-Major Axis(m)": 6980739.136638005,
        "Time(s)": 100
    },
    {
        "Altitude(m)": 604530.4155546905,
        "Argument of Periapsis(deg)": 0.0011460840504626045,
        "Eccentricity": 0.0,
        "Inclination(deg)": 60.0,
        "Latitude(deg)": 19.964970305399365,
        "Longitude(deg)": -98.3932378442534,
        "Mean Anomaly(deg)": -336.8152323999199,
        "RAAN(deg)": 349.99537945946287,
        "Satellite Name": "Test1 1541",
        "Satellite Number": 1541,
        "Semi-Major Axis(m)": 6980739.136638005,
        "Time(s)": 110
    },
    {
        "Altitude(m)": 604574.4697993523,
        "Argument of Periapsis(deg)": 0.0012502735095955685,
        "Eccentricity": 0.0,
        "Inclination(deg)": 60.0,
        "Latitude(deg)": 20.49274641778574,
        "Longitude(deg)": -98.08325269327611,
        "Mean Anomaly(deg)": -336.19512625445805,
        "RAAN(deg)": 349.9949594103231,
        "Satellite Name": "Test1 1541",
        "Satellite Number": 1541,
        "Semi-Major Axis(m)": 6980739.136638005,
        "Time(s)": 120
    },
    {
        "Altitude(m)": 604621.0042366543,
        "Argument of Periapsis(deg)": 0.0013544629687285324,
        "Eccentricity": 0.0,
        "Inclination(deg)": 60.0,
        "Latitude(deg)": 21.01977708828492,
        "Longitude(deg)": -97.77085631282465,
        "Mean Anomaly(deg)": -335.57502010899617,
        "RAAN(deg)": 349.99453936118334,
        "Satellite Name": "Test1 1541",
        "Satellite Number": 1541,
        "Semi-Major Axis(m)": 6980739.136638005,
        "Time(s)": 130
    },
    {
        "Altitude(m)": 604669.9741516064,
        "Argument of Periapsis(deg)": 0.0014586524278614966,
        "Eccentricity": 0.0,
        "Inclination(deg)": 60.0,
        "Latitude(deg)": 21.546036349733065,
        "Longitude(deg)": -97.45596741177224,
        "Mean Anomaly(deg)": -334.95491396353435,
        "RAAN(deg)": 349.9941193120436,
        "Satellite Name": "Test1 1541",
        "Satellite Number": 1541,
        "Semi-Major Axis(m)": 6980739.136638005,
        "Time(s)": 140
    },
    {
        "Altitude(m)": 604721.3337935965,
        "Argument of Periapsis(deg)": 0.0015628418869944607,
        "Eccentricity": 0.0,
        "Inclination(deg)": 60.0,
        "Latitude(deg)": 22.071497692196356,
        "Longitude(deg)": -97.13850314418339,
        "Mean Anomaly(deg)": -334.33480781807253,
        "RAAN(deg)": 349.9936992629039,
        "Satellite Name": "Test1 1541",
        "Satellite Number": 1541,
        "Semi-Major Axis(m)": 6980739.136638005,
        "Time(s)": 150
    },
    {
        "Altitude(m)": 604775.0364012308,
        "Argument of Periapsis(deg)": 0.0016670313461274247,
        "Eccentricity": 0.0,
        "Inclination(deg)": 60.0,
        "Latitude(deg)": 22.596134040215137,
        "Longitude(deg)": -96.81837855031965,
        "Mean Anomaly(deg)": -333.7147016726107,
        "RAAN(deg)": 349.99327921376414,
        "Satellite Name": "Test1 1541",
        "Satellite Number": 1541,
        "Semi-Major Axis(m)": 6980739.136638005,
        "Time(s)": 160
    },
    {
        "Altitude(m)": 604831.034227637,
        "Argument of Periapsis(deg)": 0.0017712208052603888,
        "Eccentricity": 0.0,
        "Inclination(deg)": 60.0,
        "Latitude(deg)": 23.119917729267904,
        "Longitude(deg)": -96.49550750947947,
        "Mean Anomaly(deg)": -333.09459552714884,
        "RAAN(deg)": 349.9928591646244,
        "Satellite Name": "Test1 1541",
        "Satellite Number": 1541,
        "Semi-Major Axis(m)": 6980739.136638005,
        "Time(s)": 170
    },
    {
        "Altitude(m)": 604889.2785662179,
        "Argument of Periapsis(deg)": 0.001875410264393353,
        "Eccentricity": 0.0,
        "Inclination(deg)": 60.0,
        "Latitude(deg)": 23.642820481419733,
        "Longitude(deg)": -96.16980217892979,
        "Mean Anomaly(deg)": -332.4744893816871,
        "RAAN(deg)": 349.9924391154846,
        "Satellite Name": "Test1 1541",
        "Satellite Number": 1541,
        "Semi-Major Axis(m)": 6980739.136638005,
        "Time(s)": 180
    },
    {
        "Altitude(m)": 604949.7197768477,
        "Argument of Periapsis(deg)": 0.0019795997235263173,
        "Eccentricity": 0.0,
        "Inclination(deg)": 60.0,
        "Latitude(deg)": 24.164813380124976,
        "Longitude(deg)": -95.84117243180397,
        "Mean Anomaly(deg)": -331.8543832362252,
        "RAAN(deg)": 349.99201906634494,
        "Satellite Name": "Test1 1541",
        "Satellite Number": 1541,
        "Semi-Major Axis(m)": 6980739.136638005,
        "Time(s)": 190
    }
]